NORAD_CAT_ID,OBJECT_NAME,OBJECT_TYPE,EPOCH,MEAN_MOTION,ECCENTRICITY,INCLINATION,RA_OF_ASC_NODE,ARG_OF_PERICENTER,MEAN_ANOMALY,BSTAR,MEAN_MOTION_DOT,MEAN_MOTION_DDOT,TLE_LINE0,TLE_LINE1,TLE_LINE2,SEMIMAJOR_AXIS,PERIOD,APOGEE,PERIGEE,DECAYED
53779.0,STARLINK-4706,PAYLOAD,2024-04-03 16:34:45,15.08844396,0.0001621,53.2167,199.0983,105.7002,254.4169,0.00022167,3.242e-05,0.0,0 STARLINK-4706,1 53779U 22111G   24094.69080522  .00003242  00000-0  22167-3 0  9991,2 53779  53.2167 199.0983 0001621 105.7002 254.4169 15.08844396 87263,6917.867,95.437,540.853,538.611,0.0
53779.0,STARLINK-4706,PAYLOAD,2024-04-04 13:14:46,15.088398,0.00015,53.2167,195.2325,104.342,255.7739,6.9791e-05,8.23e-06,0.0,0 STARLINK-4706,1 53779U 22111G   24095.55192652  .00000823  00000-0  69791-4 0  9992,2 53779  53.2167 195.2325 0001500 104.3420 255.7739 15.08839800 87391,6917.881,95.438,540.784,538.708,0.0
53779.0,STARLINK-4706,PAYLOAD,2024-04-05 13:05:32,15.0885131,0.0001144,53.2166,190.7749,94.987,265.1252,0.00022223,3.252e-05,0.0,0 STARLINK-4706,1 53779U 22111G   24096.54551803  .00003252  00000-0  22223-3 0  9996,2 53779  53.2166 190.7749 0001144  94.9870 265.1252 15.08851310 86739,6917.846,95.437,540.502,538.919,0.0
53779.0,STARLINK-4706,PAYLOAD,2024-04-06 12:56:20,15.0883515,0.0001289,53.2165,186.3117,89.9403,270.1737,-1.194e-05,-4.78e-06,0.0,0 STARLINK-4706,1 53779U 22111G   24097.53912522 -.00000478  00000-0 -11940-4 0  9999,2 53779  53.2165 186.3117 0001289  89.9403 270.1737 15.08835150 86888,6917.895,95.438,540.652,538.868,0.0
53779.0,STARLINK-4706,PAYLOAD,2024-04-06 22:28:39,15.08837899,0.0001371,53.2174,184.5279,89.8826,270.2323,-1.4366e-05,-5.17e-06,0.0,0 STARLINK-4706,1 53779U 22111G   24097.93656429 -.00000517  00000-0 -14366-4 0  9993,2 53779  53.2174 184.5279 0001371  89.8826 270.2323 15.08837899 87758,6917.887,95.438,540.7,538.803,0.0
53779.0,STARLINK-4706,PAYLOAD,2024-04-07 12:47:07,15.08833492,0.0001663,53.2182,181.8547,97.6051,262.513,-8.5663e-05,-1.651e-05,0.0,0 STARLINK-4706,1 53779U 22111G   24098.53272909 -.00001651  00000-0 -85663-4 0  9995,2 53779  53.2182 181.8547 0001663  97.6051 262.5130 15.08833492 87841,6917.9,95.438,540.916,538.615,0.0
53779.0,STARLINK-4706,PAYLOAD,2024-04-07 22:19:26,15.08839116,0.0001777,53.2189,180.0705,96.3848,263.7347,-3.3612e-05,-8.23e-06,0.0,0 STARLINK-4706,1 53779U 22111G   24098.93016784 -.00000823  00000-0 -33612-4 0  9993,2 53779  53.2189 180.0705 0001777  96.3848 263.7347 15.08839116 87900,6917.883,95.438,540.977,538.519,0.0
53779.0,STARLINK-4706,PAYLOAD,2024-04-08 14:13:18,15.08839477,0.0001934,53.2192,177.0976,97.4312,262.69,0.00023789,3.5e-05,0.0,0 STARLINK-4706,1 53779U 22111G   24099.59257201  .00003500  00000-0  23789-3 0  9993,2 53779  53.2192 177.0976 0001934  97.4312 262.6900 15.08839477 88008,6917.882,95.438,541.085,538.409,0.0
53779.0,STARLINK-4706,PAYLOAD,2024-04-08 22:10:13,15.08848748,0.000187,53.2167,175.6071,86.194,273.9265,0.00033067,4.98e-05,0.0,0 STARLINK-4706,1 53779U 22111G   24099.92376714  .00004980  00000-0  33067-3 0  9994,2 53779  53.2167 175.6071 0001870  86.1940 273.9265 15.08848748 88056,6917.854,95.437,541.012,538.425,0.0
53779.0,STARLINK-4706,PAYLOAD,2024-04-09 09:17:55,15.08837516,0.0001788,53.2186,173.5285,90.3362,269.7835,0.00013025,1.785e-05,0.0,0 STARLINK-4706,1 53779U 22111G   24100.38745359  .00001785  00000-0  13025-3 0  9994,2 53779  53.2186 173.5285 0001788  90.3362 269.7835 15.08837516 87319,6917.888,95.438,540.99,538.516,0.0
53779.0,STARLINK-4706,PAYLOAD,2024-04-10 10:44:05,15.0884466,0.0001518,53.2158,168.7687,89.8608,270.2558,0.00013597,1.877e-05,0.0,0 STARLINK-4706,1 53779U 22111G   24101.44729030  .00001877  00000-0  13597-3 0  9996,2 53779  53.2158 168.7687 0001518  89.8608 270.2558 15.08844660 87471,6917.866,95.437,540.781,538.681,0.0
53779.0,STARLINK-4706,PAYLOAD,2024-04-10 21:51:47,15.0885205,0.0001359,53.2153,166.6871,85.6026,274.5121,3.9418e-06,-2.25e-06,0.0,0 STARLINK-4706,1 53779U 22111G   24101.91096466 -.00000225  00000-0  39418-5 0  9997,2 53779  53.2153 166.6871 0001359  85.6026 274.5121 15.08852050 88352,6917.844,95.437,540.649,538.768,0.0
53779.0,STARLINK-4706,PAYLOAD,2024-04-11 10:34:52,15.08845002,0.0001513,53.2157,164.3084,90.7577,269.3589,0.00020271,2.94e-05,0.0,0 STARLINK-4706,1 53779U 22111G   24102.44088888  .00002940  00000-0  20271-3 0  9995,2 53779  53.2157 164.3084 0001513  90.7577 269.3589 15.08845002 88435,6917.865,95.437,540.777,538.683,0.0
53779.0,STARLINK-4706,PAYLOAD,2024-04-11 21:42:34,15.08851854,0.0001576,53.2162,162.2258,94.9711,265.1461,0.00023671,3.482e-05,0.0,0 STARLINK-4706,1 53779U 22111G   24102.90456378  .00003482  00000-0  23671-3 0  9998,2 53779  53.2162 162.2258 0001576  94.9711 265.1461 15.08851854 88509,6917.844,95.437,540.799,538.619,0.0
53779.0,STARLINK-4706,PAYLOAD,2024-04-12 10:25:40,15.08834406,0.0001875,53.2184,159.8473,105.0481,255.0718,5.5626e-06,-2e-06,0.0,0 STARLINK-4706,1 53779U 22111G   24103.43449216 -.00000200  00000-0  55626-5 0  9993,2 53779  53.2184 159.8473 0001875 105.0481 255.0718 15.08834406 87779,6917.897,95.438,541.06,538.465,0.0
53779.0,STARLINK-4706,PAYLOAD,2024-04-13 10:16:27,15.08836811,0.0001455,53.2174,155.3868,98.5902,261.5255,4.5235e-07,-2.81e-06,0.0,0 STARLINK-4706,1 53779U 22111G   24104.42809425 -.00000281  00000-0  45235-6 0  9990,2 53779  53.2174 155.3868 0001455  98.5902 261.5255 15.08836811 88732,6917.89,95.438,540.762,538.749,0.0
53779.0,STARLINK-4706,PAYLOAD,2024-04-14 03:45:41,15.08834397,0.0001428,53.2175,152.1158,102.8373,257.2778,0.00012767,1.744e-05,0.0,0 STARLINK-4706,1 53779U 22111G   24105.15673478  .00001744  00000-0  12767-3 0  9993,2 53779  53.2175 152.1158 0001428 102.8373 257.2778 15.08834397 88033,6917.898,95.438,540.75,538.775,0.0
53779.0,STARLINK-4706,PAYLOAD,2024-04-14 08:31:51,15.08836402,0.0001427,53.2173,151.2242,99.3258,260.7895,0.00014338,1.994e-05,0.0,0 STARLINK-4706,1 53779U 22111G   24105.35545448  .00001994  00000-0  14338-3 0  9993,2 53779  53.2173 151.2242 0001427  99.3258 260.7895 15.08836402 88876,6917.891,95.438,540.744,538.769,0.0
53779.0,STARLINK-4706,PAYLOAD,2024-04-15 08:22:38,15.08844538,0.0001388,53.2157,146.7618,92.1503,267.9648,0.00018276,2.622e-05,0.0,0 STARLINK-4706,1 53779U 22111G   24106.34905170  .00002622  00000-0  18276-3 0  9999,2 53779  53.2157 146.7618 0001388  92.1503 267.9648 15.08844538 88216,6917.867,95.437,540.692,538.771,0.0
53779.0,STARLINK-4706,PAYLOAD,2024-04-15 19:30:19,15.08854577,0.0001475,53.216,144.6804,75.0687,285.0469,0.0002612,3.873e-05,0.0,0 STARLINK-4706,1 53779U 22111G   24106.81272571  .00003873  00000-0  26120-3 0  9999,2 53779  53.2160 144.6804 0001475  75.0687 285.0469 15.08854577 89097,6917.836,95.437,540.721,538.68,0.0
53779.0,STARLINK-4706,PAYLOAD,2024-04-16 11:24:11,15.08847001,0.0001643,53.2165,141.709,87.5173,272.6008,0.00013669,1.888e-05,0.0,0 STARLINK-4706,1 53779U 22111G   24107.47512999  .00001888  00000-0  13669-3 0  9991,2 53779  53.2165 141.7090 0001643  87.5173 272.6008 15.08847001 88388,6917.859,95.437,540.861,538.587,0.0
53779.0,STARLINK-4706,PAYLOAD,2024-04-17 11:14:59,15.08832272,0.0001577,53.2162,137.2465,88.2587,271.8586,-0.00011153,-2.062e-05,0.0,0 STARLINK-4706,1 53779U 22111G   24108.46873919 -.00002062  00000-0 -11153-3 0  9996,2 53779  53.2162 137.2465 0001577  88.2587 271.8586 15.08832272 88537,6917.904,95.438,540.86,538.678,0.0
53779.0,STARLINK-4706,PAYLOAD,2024-04-18 11:05:46,15.08840108,0.0001625,53.2173,132.7842,89.1124,271.0054,5.9967e-05,6.66e-06,0.0,0 STARLINK-4706,1 53779U 22111G   24109.46233907  .00000666  00000-0  59967-4 0  9996,2 53779  53.2173 132.7842 0001625  89.1124 271.0054 15.08840108 88684,6917.88,95.438,540.869,538.621,0.0
53779.0,STARLINK-4706,PAYLOAD,2024-04-19 10:56:33,15.08841265,0.0001463,53.2164,128.3255,101.1052,259.0104,0.0001587,2.239e-05,0.0,0 STARLINK-4706,1 53779U 22111G   24110.45593788  .00002239  00000-0  15870-3 0  9995,2 53779  53.2164 128.3255 0001463 101.1052 259.0104 15.08841265 89642,6917.877,95.437,540.754,538.729,0.0
53779.0,STARLINK-4706,PAYLOAD,2024-04-20 04:25:46,15.08853768,0.0001486,53.2158,125.0556,102.0941,258.0217,0.00020651,3.001e-05,0.0,0 STARLINK-4706,1 53779U 22111G   24111.18457170  .00003001  00000-0  20651-3 0  9991,2 53779  53.2158 125.0556 0001486 102.0941 258.0217 15.08853768 88942,6917.838,95.437,540.731,538.675,0.0
53779.0,STARLINK-4706,PAYLOAD,2024-04-20 07:36:33,15.08858568,0.000156,53.216,124.4607,96.4683,263.6487,0.00027113,4.032e-05,0.0,0 STARLINK-4706,1 53779U 22111G   24111.31704876  .00004032  00000-0  27113-3 0  9999,2 53779  53.2160 124.4607 0001560  96.4683 263.6487 15.08858568 89773,6917.824,95.436,540.768,538.609,0.0
53779.0,STARLINK-4706,PAYLOAD,2024-04-21 04:16:35,15.08816163,0.0001267,53.216,120.5949,87.51,272.6038,-0.00034264,-5.733e-05,0.0,0 STARLINK-4706,1 53779U 22111G   24112.17818731 -.00005733  00000-0 -34264-3 0  9996,2 53779  53.2160 120.5949 0001267  87.5100 272.6038 15.08816163 89090,6917.953,95.439,540.695,538.942,0.0
53779.0,STARLINK-4706,PAYLOAD,2024-04-21 07:27:21,15.08816574,0.0001303,53.2159,120.0,88.1936,271.9205,-0.0004705,-7.763e-05,0.0,0 STARLINK-4706,1 53779U 22111G   24112.31066401 -.00007763  00000-0 -47050-3 0  9993,2 53779  53.2159 120.0000 0001303  88.1936 271.9205 15.08816574 89922,6917.952,95.439,540.718,538.916,0.0
53779.0,STARLINK-4706,PAYLOAD,2024-04-22 04:07:22,15.0882743,0.0001311,53.2162,116.1329,56.3039,303.8078,-1.0571e-05,-4.56e-06,0.0,0 STARLINK-4706,1 53779U 22111G   24113.17179067 -.00000456  00000-0 -10571-4 0  9992,2 53779  53.2162 116.1329 0001311  56.3039 303.8078 15.08827430 89247,6917.919,95.438,540.691,538.877,0.0
53779.0,STARLINK-4706,PAYLOAD,2024-04-22 05:42:45,15.08830833,0.000119,53.2155,115.8356,67.4016,292.7102,0.00028218,4.205e-05,0.0,0 STARLINK-4706,1 53779U 22111G   24113.23803070  .00004205  00000-0  28218-3 0  9997,2 53779  53.2155 115.8356 0001190  67.4016 292.7102 15.08830833 90065,6917.908,95.438,540.597,538.95,0.0
